start=new Date('2023-04-02T00:00:00.000Z').valueOf();
sats=[{"PERIAPSIS":"539.172","GP_ID":"229277787","REF_FRAME":"TEME","BSTAR":"0.00010408000000","SEMIMAJOR_AXIS":"6917.913","OBJECT_ID":"2022-045AX","OBJECT_TYPE":"PAYLOAD","PERIOD":"95.438","COUNTRY_CODE":"US","TLE_LINE2":"2 52376  53.2171 324.9718 0000877  68.5912 291.5174 15.08829222 53973","CLASSIFICATION_TYPE":"U","EPHEMERIS_TYPE":"0","MEAN_ELEMENT_THEORY":"SGP4","MEAN_MOTION":"15.08829222","MEAN_ANOMALY":"291.5174","NORAD_CAT_ID":"52376","REV_AT_EPOCH":"5397","FILE":"3877516","ECCENTRICITY":"0.00008770","SITE":"AFETR","APOAPSIS":"540.385","INCLINATION":"53.2171","CENTER_NAME":"EARTH","EPOCH":"2023-04-01T22:06:01.649952","LAUNCH_DATE":"2022-04-29","ELEMENT_SET_NO":"999","DECAY_DATE":null,"RCS_SIZE":"LARGE","TLE_LINE1":"1 52376U 22045AX  23091.92085243  .00001369  00000-0  10408-3 0  9999","OBJECT_NAME":"STARLINK-3767","ARG_OF_PERICENTER":"68.5912","MEAN_MOTION_DDOT":"0.0000000000000","TIME_SYSTEM":"UTC","MEAN_MOTION_DOT":"0.00001369","RA_OF_ASC_NODE":"324.9718"},{"MEAN_MOTION_DDOT":"0.0000000000000","TIME_SYSTEM":"UTC","MEAN_MOTION_DOT":"0.00000557","RA_OF_ASC_NODE":"325.0910","LAUNCH_DATE":"2022-04-29","ARG_OF_PERICENTER":"117.3673","OBJECT_NAME":"STARLINK-3805","DECAY_DATE":null,"ELEMENT_SET_NO":"999","TLE_LINE1":"1 52377U 22045AY  23091.94296077  .00000557  00000-0  53116-4 0  9993","RCS_SIZE":"LARGE","FILE":"3877516","ECCENTRICITY":"0.00015420","REV_AT_EPOCH":"5396","NORAD_CAT_ID":"52377","CENTER_NAME":"EARTH","INCLINATION":"53.2184","APOAPSIS":"540.832","EPOCH":"2023-04-01T22:37:51.810528","SITE":"AFETR","SEMIMAJOR_AXIS":"6917.901","OBJECT_TYPE":"PAYLOAD","OBJECT_ID":"2022-045AY","PERIAPSIS":"538.699","GP_ID":"229278538","BSTAR":"0.00005311600000","REF_FRAME":"TEME","MEAN_ANOMALY":"242.7477","COUNTRY_CODE":"US","TLE_LINE2":"2 52377  53.2184 325.0910 0001542 117.3673 242.7477 15.08833409 53966","CLASSIFICATION_TYPE":"U","EPHEMERIS_TYPE":"0","PERIOD":"95.438","MEAN_MOTION":"15.08833409","MEAN_ELEMENT_THEORY":"SGP4"},{"TIME_SYSTEM":"UTC","RA_OF_ASC_NODE":"325.0029","MEAN_MOTION_DOT":"0.00008442","MEAN_MOTION_DDOT":"0.0000000000000","OBJECT_NAME":"STARLINK-3806","ARG_OF_PERICENTER":"57.7310","ELEMENT_SET_NO":"999","DECAY_DATE":null,"TLE_LINE1":"1 52378U 22045AZ  23091.91349351  .00008442  00000-0  54775-3 0  9997","RCS_SIZE":"LARGE","LAUNCH_DATE":"2022-04-29","APOAPSIS":"540.734","INCLINATION":"53.2154","CENTER_NAME":"EARTH","EPOCH":"2023-04-01T21:55:25.839264","SITE":"AFETR","FILE":"3877516","ECCENTRICITY":"0.00014660","NORAD_CAT_ID":"52378","REV_AT_EPOCH":"5397","MEAN_ANOMALY":"302.3824","PERIOD":"95.437","COUNTRY_CODE":"US","TLE_LINE2":"2 52378  53.2154 325.0029 0001466  57.7310 302.3824 15.08848401 53973","CLASSIFICATION_TYPE":"U","EPHEMERIS_TYPE":"0","MEAN_ELEMENT_THEORY":"SGP4","MEAN_MOTION":"15.08848401","SEMIMAJOR_AXIS":"6917.855","OBJECT_TYPE":"PAYLOAD","OBJECT_ID":"2022-045AZ","PERIAPSIS":"538.706","GP_ID":"229278788","BSTAR":"0.00054775000000","REF_FRAME":"TEME"},{"MEAN_MOTION_DDOT":"0.0000000000000","TIME_SYSTEM":"UTC","RA_OF_ASC_NODE":"325.5777","MEAN_MOTION_DOT":"0.00006178","LAUNCH_DATE":"2022-04-29","OBJECT_NAME":"STARLINK-3800","ARG_OF_PERICENTER":"88.0607","DECAY_DATE":null,"ELEMENT_SET_NO":"999","TLE_LINE1":"1 52379U 22045BA  23091.78469087  .00006178  00000-0  40591-3 0  9997","RCS_SIZE":"LARGE","FILE":"3877516","ECCENTRICITY":"0.00015650","NORAD_CAT_ID":"52379","REV_AT_EPOCH":"5395","APOAPSIS":"540.824","INCLINATION":"53.2161","CENTER_NAME":"EARTH","EPOCH":"2023-04-01T18:49:57.291168","SITE":"AFETR","SEMIMAJOR_AXIS":"6917.876","OBJECT_ID":"2022-045BA","OBJECT_TYPE":"PAYLOAD","GP_ID":"229279038","PERIAPSIS":"538.658","BSTAR":"0.00040591000000","REF_FRAME":"TEME","MEAN_ANOMALY":"272.0564","PERIOD":"95.437","TLE_LINE2":"2 52379  53.2161 325.5777 0001565  88.0607 272.0564 15.08841441 53952","COUNTRY_CODE":"US","EPHEMERIS_TYPE":"0","CLASSIFICATION_TYPE":"U","MEAN_ELEMENT_THEORY":"SGP4","MEAN_MOTION":"15.08841441"},{"SITE":"AFETR","APOAPSIS":"540.681","INCLINATION":"53.2162","CENTER_NAME":"EARTH","EPOCH":"2023-04-01T21:30:15.739200","NORAD_CAT_ID":"52380","REV_AT_EPOCH":"5410","FILE":"3877516","ECCENTRICITY":"0.00013070","PERIOD":"95.438","COUNTRY_CODE":"US","TLE_LINE2":"2 52380  53.2162 315.1099 0001307  75.6765 284.4372 15.08829708 54102","EPHEMERIS_TYPE":"0","CLASSIFICATION_TYPE":"U","MEAN_ELEMENT_THEORY":"SGP4","MEAN_MOTION":"15.08829708","MEAN_ANOMALY":"284.4372","GP_ID":"229278288","PERIAPSIS":"538.873","REF_FRAME":"TEME","BSTAR":"-0.00001041700000","SEMIMAJOR_AXIS":"6917.912","OBJECT_ID":"2022-045BB","OBJECT_TYPE":"PAYLOAD","TIME_SYSTEM":"UTC","RA_OF_ASC_NODE":"315.1099","MEAN_MOTION_DOT":"-0.00000454","MEAN_MOTION_DDOT":"0.0000000000000","ELEMENT_SET_NO":"999","DECAY_DATE":null,"RCS_SIZE":"LARGE","TLE_LINE1":"1 52380U 22045BB  23091.89601550 -.00000454  00000-0 -10417-4 0  9992","OBJECT_NAME":"STARLINK-3793","ARG_OF_PERICENTER":"75.6765","LAUNCH_DATE":"2022-04-29"},{"MEAN_MOTION_DDOT":"0.0000000000000","RA_OF_ASC_NODE":"325.0166","MEAN_MOTION_DOT":"0.00008985","TIME_SYSTEM":"UTC","LAUNCH_DATE":"2022-04-29","OBJECT_NAME":"STARLINK-3803","ARG_OF_PERICENTER":"85.7907","TLE_LINE1":"1 52381U 22045BC  23091.90980915  .00008985  00000-0  58179-3 0  9991","RCS_SIZE":"LARGE","ELEMENT_SET_NO":"999","DECAY_DATE":null,"ECCENTRICITY":"0.00009230","FILE":"3877516","NORAD_CAT_ID":"52381","REV_AT_EPOCH":"5397","EPOCH":"2023-04-01T21:50:07.510560","APOAPSIS":"540.369","INCLINATION":"53.2162","CENTER_NAME":"EARTH","SITE":"AFETR","OBJECT_ID":"2022-045BC","OBJECT_TYPE":"PAYLOAD","SEMIMAJOR_AXIS":"6917.866","BSTAR":"0.00058179000000","REF_FRAME":"TEME","GP_ID":"229278038","PERIAPSIS":"539.092","MEAN_ANOMALY":"274.3191","MEAN_ELEMENT_THEORY":"SGP4","MEAN_MOTION":"15.08844796","PERIOD":"95.437","TLE_LINE2":"2 52381  53.2162 325.0166 0000923  85.7907 274.3191 15.08844796 53976","COUNTRY_CODE":"US","EPHEMERIS_TYPE":"0","CLASSIFICATION_TYPE":"U"},{"DECAY_DATE":null,"ELEMENT_SET_NO":"999","RCS_SIZE":"LARGE","TLE_LINE1":"1 52382U 22045BD  23091.90613445  .00004539  00000-0  30314-3 0  9995","ARG_OF_PERICENTER":"88.3040","OBJECT_NAME":"STARLINK-3799","LAUNCH_DATE":"2022-04-29","TIME_SYSTEM":"UTC","MEAN_MOTION_DOT":"0.00004539","RA_OF_ASC_NODE":"325.0407","MEAN_MOTION_DDOT":"0.0000000000000","TLE_LINE2":"2 52382  53.2168 325.0407 0001048  88.3040 271.8072 15.08836554 53970","EPHEMERIS_TYPE":"0","COUNTRY_CODE":"US","CLASSIFICATION_TYPE":"U","PERIOD":"95.438","MEAN_MOTION":"15.08836554","MEAN_ELEMENT_THEORY":"SGP4","MEAN_ANOMALY":"271.8072","GP_ID":"229279288","PERIAPSIS":"539.031","BSTAR":"0.00030314000000","REF_FRAME":"TEME","SEMIMAJOR_AXIS":"6917.891","OBJECT_ID":"2022-045BD","OBJECT_TYPE":"PAYLOAD","SITE":"AFETR","INCLINATION":"53.2168","CENTER_NAME":"EARTH","APOAPSIS":"540.481","EPOCH":"2023-04-01T21:44:50.016480","REV_AT_EPOCH":"5397","NORAD_CAT_ID":"52382","FILE":"3877516","ECCENTRICITY":"0.00010480"},{"LAUNCH_DATE":"2022-04-29","ARG_OF_PERICENTER":"117.1461","OBJECT_NAME":"STARLINK-3811","DECAY_DATE":null,"ELEMENT_SET_NO":"999","RCS_SIZE":"LARGE","TLE_LINE1":"1 52383U 22045BE  23091.79665398  .00009137  00000-0  59147-3 0  9991","MEAN_MOTION_DDOT":"0.0000000000000","TIME_SYSTEM":"UTC","MEAN_MOTION_DOT":"0.00009137","RA_OF_ASC_NODE":"315.5494","SEMIMAJOR_AXIS":"6917.895","OBJECT_TYPE":"PAYLOAD","OBJECT_ID":"2022-045BE","GP_ID":"229279538","PERIAPSIS":"538.865","BSTAR":"0.00059147000000","REF_FRAME":"TEME","MEAN_ANOMALY":"242.9663","TLE_LINE2":"2 52383  53.2156 315.5494 0001294 117.1461 242.9663 15.08835155 54094","CLASSIFICATION_TYPE":"U","COUNTRY_CODE":"US","EPHEMERIS_TYPE":"0","PERIOD":"95.438","MEAN_MOTION":"15.08835155","MEAN_ELEMENT_THEORY":"SGP4","FILE":"3877516","ECCENTRICITY":"0.00012940","REV_AT_EPOCH":"5409","NORAD_CAT_ID":"52383","INCLINATION":"53.2156","CENTER_NAME":"EARTH","APOAPSIS":"540.655","EPOCH":"2023-04-01T19:07:10.903872","SITE":"AFETR"},{"MEAN_MOTION_DOT":"0.00009148","RA_OF_ASC_NODE":"206.3059","TIME_SYSTEM":"UTC","MEAN_MOTION_DDOT":"0.0000000000000","OBJECT_NAME":"STARLINK-3870","ARG_OF_PERICENTER":"106.9488","TLE_LINE1":"1 52451U 22049A   23091.62276356  .00009148  00000-0  59215-3 0  9993","RCS_SIZE":"LARGE","ELEMENT_SET_NO":"999","DECAY_DATE":null,"LAUNCH_DATE":"2022-05-06","EPOCH":"2023-04-01T14:56:46.771584","APOAPSIS":"540.639","INCLINATION":"53.2165","CENTER_NAME":"EARTH","SITE":"AFETR","ECCENTRICITY":"0.00012860","FILE":"3877516","NORAD_CAT_ID":"52451","REV_AT_EPOCH":"5011","MEAN_ANOMALY":"253.1645","MEAN_ELEMENT_THEORY":"SGP4","MEAN_MOTION":"15.08838791","PERIOD":"95.438","TLE_LINE2":"2 52451  53.2165 206.3059 0001286 106.9488 253.1645 15.08838791 50112","COUNTRY_CODE":"US","CLASSIFICATION_TYPE":"U","EPHEMERIS_TYPE":"0","OBJECT_TYPE":"PAYLOAD","OBJECT_ID":"2022-049A","SEMIMAJOR_AXIS":"6917.884","REF_FRAME":"TEME","BSTAR":"0.00059215000000","GP_ID":"229278795","PERIAPSIS":"538.859"},{"TLE_LINE2":"2 52452  53.2146 206.5014 0001743  70.7170 289.4010 15.08833979 50109","CLASSIFICATION_TYPE":"U","COUNTRY_CODE":"US","EPHEMERIS_TYPE":"0","PERIOD":"95.438","MEAN_MOTION":"15.08833979","MEAN_ELEMENT_THEORY":"SGP4","MEAN_ANOMALY":"289.4010","PERIAPSIS":"538.558","GP_ID":"229279045","REF_FRAME":"TEME","BSTAR":"-0.00003136000000","SEMIMAJOR_AXIS":"6917.899","OBJECT_ID":"2022-049B","OBJECT_TYPE":"PAYLOAD","SITE":"AFETR","INCLINATION":"53.2146","CENTER_NAME":"EARTH","APOAPSIS":"540.970","EPOCH":"2023-04-01T13:54:34.389216","REV_AT_EPOCH":"5010","NORAD_CAT_ID":"52452","FILE":"3877516","ECCENTRICITY":"0.00017430","DECAY_DATE":null,"ELEMENT_SET_NO":"999","TLE_LINE1":"1 52452U 22049B   23091.57956469 -.00000787  00000-0 -31360-4 0  9992","RCS_SIZE":"LARGE","ARG_OF_PERICENTER":"70.7170","OBJECT_NAME":"STARLINK-3909","LAUNCH_DATE":"2022-05-06","TIME_SYSTEM":"UTC","RA_OF_ASC_NODE":"206.5014","MEAN_MOTION_DOT":"-0.00000787","MEAN_MOTION_DDOT":"0.0000000000000"}];
